2025-274J               
1 66658U 25274J   25344.66423679  .00004673  00000+0  45894-3 0  9994
2 66658  97.7383 271.9095 0011473 286.8459  73.1502 14.92603554  2099
JACK K                  
1 66659U 25274K   25344.32734500  .00004352  00000+0  42579-3 0  9997
2 66659  97.7384 271.5826 0012206 289.5073  70.4827 14.92785796  2040
K-HERO                  
1 66660U 25274L   25344.86216289  .00004629  00000+0  45073-3 0  9996
2 66660  97.7384 272.1123 0012777 287.9189  72.0637 14.92942266  2125
SNUGLITE-III            
1 66661U 25274M   25344.52565073  .00003587  00000+0  34929-3 0  9998
2 66661  97.7386 271.7842 0013507 290.3559  69.6209 14.93078808  2076
2025-274N               
1 66662U 25274N   25344.72614377  .00003894  00000+0  37811-3 0  9997
2 66662  97.7385 271.9829 0013923 289.1745  70.7968 14.93130127  2100
KSLV-II R/B             
1 66663U 25274P   25344.68665326  .00004986  00000+0  42413-3 0  9990
2 66663  97.7409 272.0473 0051500 326.4324  33.3638 14.97260202  2107
SOYUZ-MS 28             
1 66664U 25275A   25344.92875130  .00014434  00000+0  26509-3 0  9992
2 66664  51.6309 151.4463 0003350 232.8214 127.2469 15.49489378  1281
STARLINK-35867          
1 66791U 25278A   25344.50003472 -.01271679  47034-3 -36396-2 0  9997
2 66791  42.9987 266.0188 0001948 267.7090 243.0586 15.92323354  2595
STARLINK-35990          
1 66792U 25278B   25344.50003472 -.01255752  45974-3 -35886-2 0  9996
2 66792  42.9985 266.0152 0001923 268.6025 243.5700 15.92349849  2596
STARLINK-36051          
1 66793U 25278C   25344.50003472 -.01269649  46955-3 -36095-2 0  9990
2 66793  42.9988 266.0034 0001908 263.5448 253.3065 15.92451421  2497
STARLINK-36062          
1 66794U 25278D   25344.50003472 -.01270348  46983-3 -36195-2 0  9991
2 66794  42.9987 266.0085 0001919 268.0959 246.7693 15.92409291  2594
STARLINK-36047          
1 66795U 25278E   25344.50003472 -.01289087  48308-3 -36538-2 0  9996
2 66795  42.9987 265.9971 0001910 262.3002 257.0278 15.92511949  2491
