CCSDS_OMM_VERS = 2.0
CREATION_DATE  = 
ORIGINATOR     = 

OBJECT_NAME    = 2025-274J
OBJECT_ID      = 2025-274J
CENTER_NAME    = EARTH
REF_FRAME      = TEME
TIME_SYSTEM    = UTC
MEAN_ELEMENT_THEORY = SGP/SGP4

EPOCH          = 2025-12-10T15:56:30.058656
MEAN_MOTION    = 14.92603554
ECCENTRICITY   = .00114737
INCLINATION    = 97.7383
RA_OF_ASC_NODE = 271.9095
ARG_OF_PERICENTER = 286.8459
MEAN_ANOMALY   = 73.1502

EPHEMERIS_TYPE = 0
CLASSIFICATION_TYPE = U
NORAD_CAT_ID   = 66658
ELEMENT_SET_NO = 999
REV_AT_EPOCH   = 209
BSTAR          = .45894331E-3
MEAN_MOTION_DOT = .4673E-4
MEAN_MOTION_DDOT = 0

CCSDS_OMM_VERS = 2.0
CREATION_DATE  = 
ORIGINATOR     = 

OBJECT_NAME    = JACK K
OBJECT_ID      = 2025-274K
CENTER_NAME    = EARTH
REF_FRAME      = TEME
TIME_SYSTEM    = UTC
MEAN_ELEMENT_THEORY = SGP/SGP4

EPOCH          = 2025-12-10T07:51:22.608000
MEAN_MOTION    = 14.92785796
ECCENTRICITY   = .00122069
INCLINATION    = 97.7384
RA_OF_ASC_NODE = 271.5826
ARG_OF_PERICENTER = 289.5073
MEAN_ANOMALY   = 70.4827

EPHEMERIS_TYPE = 0
CLASSIFICATION_TYPE = U
NORAD_CAT_ID   = 66659
ELEMENT_SET_NO = 999
REV_AT_EPOCH   = 204
BSTAR          = .42579045E-3
MEAN_MOTION_DOT = .4352E-4
MEAN_MOTION_DDOT = 0

CCSDS_OMM_VERS = 2.0
CREATION_DATE  = 
ORIGINATOR     = 

OBJECT_NAME    = K-HERO
OBJECT_ID      = 2025-274L
CENTER_NAME    = EARTH
REF_FRAME      = TEME
TIME_SYSTEM    = UTC
MEAN_ELEMENT_THEORY = SGP/SGP4

EPOCH          = 2025-12-10T20:41:30.873696
MEAN_MOTION    = 14.92942266
ECCENTRICITY   = .00127776
INCLINATION    = 97.7384
RA_OF_ASC_NODE = 272.1123
ARG_OF_PERICENTER = 287.9189
MEAN_ANOMALY   = 72.0637

EPHEMERIS_TYPE = 0
CLASSIFICATION_TYPE = U
NORAD_CAT_ID   = 66660
ELEMENT_SET_NO = 999
REV_AT_EPOCH   = 212
BSTAR          = .4507272E-3
MEAN_MOTION_DOT = .4629E-4
MEAN_MOTION_DDOT = 0

CCSDS_OMM_VERS = 2.0
CREATION_DATE  = 
ORIGINATOR     = 

OBJECT_NAME    = SNUGLITE-III
OBJECT_ID      = 2025-274M
CENTER_NAME    = EARTH
REF_FRAME      = TEME
TIME_SYSTEM    = UTC
MEAN_ELEMENT_THEORY = SGP/SGP4

EPOCH          = 2025-12-10T12:36:56.223072
MEAN_MOTION    = 14.93078808
ECCENTRICITY   = .0013507
INCLINATION    = 97.7386
RA_OF_ASC_NODE = 271.7842
ARG_OF_PERICENTER = 290.3559
MEAN_ANOMALY   = 69.6209

EPHEMERIS_TYPE = 0
CLASSIFICATION_TYPE = U
NORAD_CAT_ID   = 66661
ELEMENT_SET_NO = 999
REV_AT_EPOCH   = 207
BSTAR          = .34929E-3
MEAN_MOTION_DOT = .3587E-4
MEAN_MOTION_DDOT = 0

CCSDS_OMM_VERS = 2.0
CREATION_DATE  = 
ORIGINATOR     = 

OBJECT_NAME    = 2025-274N
OBJECT_ID      = 2025-274N
CENTER_NAME    = EARTH
REF_FRAME      = TEME
TIME_SYSTEM    = UTC
MEAN_ELEMENT_THEORY = SGP/SGP4

EPOCH          = 2025-12-10T17:25:38.821728
MEAN_MOTION    = 14.93130127
ECCENTRICITY   = .0013923
INCLINATION    = 97.7385
RA_OF_ASC_NODE = 271.9829
ARG_OF_PERICENTER = 289.1745
MEAN_ANOMALY   = 70.7968

EPHEMERIS_TYPE = 0
CLASSIFICATION_TYPE = U
NORAD_CAT_ID   = 66662
ELEMENT_SET_NO = 999
REV_AT_EPOCH   = 210
BSTAR          = .37810849E-3
MEAN_MOTION_DOT = .3894E-4
MEAN_MOTION_DDOT = 0

CCSDS_OMM_VERS = 2.0
CREATION_DATE  = 
ORIGINATOR     = 

OBJECT_NAME    = KSLV-II R/B
OBJECT_ID      = 2025-274P
CENTER_NAME    = EARTH
REF_FRAME      = TEME
TIME_SYSTEM    = UTC
MEAN_ELEMENT_THEORY = SGP/SGP4

EPOCH          = 2025-12-10T16:28:46.841664
MEAN_MOTION    = 14.97260202
ECCENTRICITY   = .00515006
INCLINATION    = 97.7409
RA_OF_ASC_NODE = 272.0473
ARG_OF_PERICENTER = 326.4324
MEAN_ANOMALY   = 33.3638

EPHEMERIS_TYPE = 0
CLASSIFICATION_TYPE = U
NORAD_CAT_ID   = 66663
ELEMENT_SET_NO = 999
REV_AT_EPOCH   = 210
BSTAR          = .42412813E-3
MEAN_MOTION_DOT = .4986E-4
MEAN_MOTION_DDOT = 0

CCSDS_OMM_VERS = 2.0
CREATION_DATE  = 
ORIGINATOR     = 

OBJECT_NAME    = SOYUZ-MS 28
OBJECT_ID      = 2025-275A
CENTER_NAME    = EARTH
REF_FRAME      = TEME
TIME_SYSTEM    = UTC
MEAN_ELEMENT_THEORY = SGP/SGP4

EPOCH          = 2025-12-10T22:17:24.112320
MEAN_MOTION    = 15.49489378
ECCENTRICITY   = .00033509
INCLINATION    = 51.6309
RA_OF_ASC_NODE = 151.4463
ARG_OF_PERICENTER = 232.8214
MEAN_ANOMALY   = 127.2469

EPHEMERIS_TYPE = 0
CLASSIFICATION_TYPE = U
NORAD_CAT_ID   = 66664
ELEMENT_SET_NO = 999
REV_AT_EPOCH   = 128
BSTAR          = .26508679E-3
MEAN_MOTION_DOT = .14434E-3
MEAN_MOTION_DDOT = 0

CCSDS_OMM_VERS = 2.0
CREATION_DATE  = 
ORIGINATOR     = 

OBJECT_NAME    = STARLINK-35867
OBJECT_ID      = 2025-278A
CENTER_NAME    = EARTH
REF_FRAME      = TEME
TIME_SYSTEM    = UTC
MEAN_ELEMENT_THEORY = SGP/SGP4

EPOCH          = 2025-12-10T12:00:02.999808
MEAN_MOTION    = 15.92323354
ECCENTRICITY   = .00019485
INCLINATION    = 42.9987
RA_OF_ASC_NODE = 266.0188
ARG_OF_PERICENTER = 267.7090
MEAN_ANOMALY   = 243.0586

EPHEMERIS_TYPE = 0
CLASSIFICATION_TYPE = U
NORAD_CAT_ID   = 66791
ELEMENT_SET_NO = 999
REV_AT_EPOCH   = 259
BSTAR          = -.36396018E-2
MEAN_MOTION_DOT = -.1271679E-1
MEAN_MOTION_DDOT = .47034342E-3

CCSDS_OMM_VERS = 2.0
CREATION_DATE  = 
ORIGINATOR     = 

OBJECT_NAME    = STARLINK-35990
OBJECT_ID      = 2025-278B
CENTER_NAME    = EARTH
REF_FRAME      = TEME
TIME_SYSTEM    = UTC
MEAN_ELEMENT_THEORY = SGP/SGP4

EPOCH          = 2025-12-10T12:00:02.999808
MEAN_MOTION    = 15.92349849
ECCENTRICITY   = .0001923
INCLINATION    = 42.9985
RA_OF_ASC_NODE = 266.0152
ARG_OF_PERICENTER = 268.6025
MEAN_ANOMALY   = 243.5700

EPHEMERIS_TYPE = 0
CLASSIFICATION_TYPE = U
NORAD_CAT_ID   = 66792
ELEMENT_SET_NO = 999
REV_AT_EPOCH   = 259
BSTAR          = -.35885767E-2
MEAN_MOTION_DOT = -.1255752E-1
MEAN_MOTION_DDOT = .45973908E-3

CCSDS_OMM_VERS = 2.0
CREATION_DATE  = 
ORIGINATOR     = 

OBJECT_NAME    = STARLINK-36051
OBJECT_ID      = 2025-278C
CENTER_NAME    = EARTH
REF_FRAME      = TEME
TIME_SYSTEM    = UTC
MEAN_ELEMENT_THEORY = SGP/SGP4

EPOCH          = 2025-12-10T12:00:02.999808
MEAN_MOTION    = 15.92451421
ECCENTRICITY   = .00019083
INCLINATION    = 42.9988
RA_OF_ASC_NODE = 266.0034
ARG_OF_PERICENTER = 263.5448
MEAN_ANOMALY   = 253.3065

EPHEMERIS_TYPE = 0
CLASSIFICATION_TYPE = U
NORAD_CAT_ID   = 66793
ELEMENT_SET_NO = 999
REV_AT_EPOCH   = 249
BSTAR          = -.36094995E-2
MEAN_MOTION_DOT = -.1269649E-1
MEAN_MOTION_DDOT = .46955413E-3

CCSDS_OMM_VERS = 2.0
CREATION_DATE  = 
ORIGINATOR     = 

OBJECT_NAME    = STARLINK-36062
OBJECT_ID      = 2025-278D
CENTER_NAME    = EARTH
REF_FRAME      = TEME
TIME_SYSTEM    = UTC
MEAN_ELEMENT_THEORY = SGP/SGP4

EPOCH          = 2025-12-10T12:00:02.999808
MEAN_MOTION    = 15.92409291
ECCENTRICITY   = .0001919
INCLINATION    = 42.9987
RA_OF_ASC_NODE = 266.0085
ARG_OF_PERICENTER = 268.0959
MEAN_ANOMALY   = 246.7693

EPHEMERIS_TYPE = 0
CLASSIFICATION_TYPE = U
NORAD_CAT_ID   = 66794
ELEMENT_SET_NO = 999
REV_AT_EPOCH   = 259
BSTAR          = -.36194707E-2
MEAN_MOTION_DOT = -.1270348E-1
MEAN_MOTION_DDOT = .46983414E-3

CCSDS_OMM_VERS = 2.0
CREATION_DATE  = 
ORIGINATOR     = 

OBJECT_NAME    = STARLINK-36047
OBJECT_ID      = 2025-278E
CENTER_NAME    = EARTH
REF_FRAME      = TEME
TIME_SYSTEM    = UTC
MEAN_ELEMENT_THEORY = SGP/SGP4

EPOCH          = 2025-12-10T12:00:02.999808
MEAN_MOTION    = 15.92511949
ECCENTRICITY   = .00019105
INCLINATION    = 42.9987
RA_OF_ASC_NODE = 265.9971
ARG_OF_PERICENTER = 262.3002
MEAN_ANOMALY   = 257.0278

EPHEMERIS_TYPE = 0
CLASSIFICATION_TYPE = U
NORAD_CAT_ID   = 66795
ELEMENT_SET_NO = 999
REV_AT_EPOCH   = 249
BSTAR          = -.36537643E-2
MEAN_MOTION_DOT = -.1289087E-1
MEAN_MOTION_DDOT = .4830767E-3

